INMARSAT 4-F2 (SOUTHPA*)
1 28899U 05044A   26187.46055828 -.00000249  00000+0  00000+0 0  9995
2 28899   5.1182  43.6509 0003083  53.4955 136.5803  1.00271325 75714
GSAT-8 (GAGAN/PRN 127)  
1 37605U 11022A   26187.87085006  .00000099  00000+0  00000+0 0  9991
2 37605   2.1787  81.5897 0002402 167.0325  44.8091  1.00270719 53414
LUCH 5A (SDCM/PRN 140)  
1 37951U 11074B   26187.63408068 -.00000039  00000+0  00000+0 0  9998
2 37951   8.7999  73.5230 0002613  51.3753 194.9372  1.00272630 53245
SES-5 (EGNOS/PRN 136)   
1 38652U 12036A   26187.07667602  .00000048  00000+0  00000+0 0  9994
2 38652   0.0475 315.2819 0002144 151.6577 209.7104  1.00273320 44643
GSAT-10 (GAGAN/PRN 128) 
1 38779U 12051B   26187.66432233 -.00000149  00000+0  00000+0 0  9999
2 38779   0.0420 240.1474 0007864 214.3085 152.3326  1.00269440 50296
LUCH 5B (SDCM/PRN 125)  
1 38977U 12061A   26187.85670947 -.00000128  00000+0  00000+0 0  9994
2 38977  10.5233  49.6828 0003430 139.1816  28.1429  1.00271933 49809
ASTRA 5B (EGNOS/PRN 123)
1 39617U 14011B   26187.85725924  .00000152  00000+0  00000+0 0  9995
2 39617   0.0693 307.2462 0001938 160.3101 149.3872  1.00270600 44865
LUCH 5V (SDCM/PRN 141)  
1 39727U 14023A   26187.73602066 -.00000256  00000+0  00000+0 0  9994
2 39727   5.1783  69.5499 0002699  63.0343 151.7961  1.00268207 44555
GSAT-15 (GAGAN/PRN 139) 
1 41028U 15065A   26187.59323561 -.00000243  00000+0  00000+0 0  9998
2 41028   0.0319 255.1193 0003997 191.4968 145.0177  1.00272104 38993
EUTELSAT 117 WEST B (W*)
1 41589U 16038B   26187.55159090  .00000003  00000+0  00000+0 0  9994
2 41589   0.0038 188.7482 0000109 291.5325 245.8156  1.00271383 36853
SES-15 (WAAS/PRN 133)   
1 42709U 17026A   26187.69175729  .00000075  00000+0  00000+0 0  9998
2 42709   0.0241 328.0253 0000516 131.1108 305.4075  1.00267383  7620
QZS-2 (QZSS/PRN 194)    
1 42738U 17028A   26187.45343186 -.00000103  00000+0  00000+0 0  9993
2 42738  39.3984 242.8697 0758305 269.4935  77.5786  1.00278986  7813
QZS-3 (QZSS/PRN 199)    
1 42917U 17048A   26187.74243403 -.00000334  00000+0  00000+0 0  9993
2 42917   0.0813 223.1942 0001891 244.8838 210.8696  1.00264167 32459
QZS-4 (QZSS/PRN 195)    
1 42965U 17062A   26187.74633404 -.00000307  00000+0  00000+0 0  9996
2 42965  40.0978 343.2382 0747190 268.3770  80.3868  1.00293100 31993
BEIDOU-3 G1 (PRN 130)   
1 43683U 18085A   26187.82028975 -.00000095  00000+0  00000+0 0  9994
2 43683   2.9152  96.8580 0008519 354.0084 289.1609  1.00273678 28254
EUTELSAT 5 WEST B (EGN*)
1 44624U 19067A   26187.85887615 -.00000027  00000+0  00000+0 0  9993
2 44624   0.0657 338.9665 0003196 127.6580 122.4022  1.00271387 24635
BEIDOU-3 G2 (PRN 144)   
1 45344U 20017A   26187.87579008 -.00000127  00000+0  00000+0 0  9997
2 45344   2.9014  47.6135 0002459  51.8682 220.7363  1.00270817 23457
BEIDOU-3 G3 (PRN 143)   
1 45807U 20040A   26187.81049638 -.00000340  00000+0  00000+0 0  9999
2 45807   2.4924  67.4782 0002170 334.6376 284.9927  1.00269061 22261
GALAXY 30 (WAAS/PRN 135)
1 46114U 20056C   26187.76375412  .00000052  00000+0  00000+0 0  9993
2 46114   0.0206  38.7570 0002186  67.2773 328.6685  1.00270907 21484
QZS-1R (QZSS/PRN 196)   
1 49336U 21096A   26186.60108073 -.00000258  00000+0  00000+0 0  9995
2 49336  37.4964  79.3119 0755511 272.0883 281.1819  1.00249302 17193
QZS-6 (QZSS/PRN 200)    
1 62876U 25023A   26187.81796132 -.00000218  00000+0  00000+0 0  9992
2 62876   0.0340 293.4123 0001929 189.8939 186.4749  1.00269899  5143
